{
"type": "FeatureCollection",
"name": "ireland_land_boundary",
"crs": { "type": "name", "properties": { "name": "urn:ogc:def:crs:OGC:1.3:CRS84" } },
"features": [
{ "type": "Feature", "properties": { }, "geometry": { "type": "MultiPolygon", "coordinates": [ [ [ [ -7.03076171875, 55.080615234374996 ], [ -6.947167968749994, 55.182519531250001 ], [ -6.888964843749989, 55.188916015624997 ], [ -6.824853515624994, 55.1806640625 ], [ -6.698828124999977, 55.193457031249999 ], [ -6.475048828124983, 55.241015625 ], [ -6.375292968749989, 55.241796875 ], [ -6.234228515624977, 55.216845703124996 ], [ -6.129150390625, 55.217382812499999 ], [ -6.035791015624994, 55.14453125 ], [ -5.985742187499994, 55.0296875 ], [ -5.869189453124989, 54.916210937499997 ], [ -5.716845703124989, 54.817480468749999 ], [ -5.710742187499989, 54.757080078125 ], [ -5.765185546874989, 54.724658203124996 ], [ -5.879101562499983, 54.684375 ], [ -5.878613281249983, 54.641308593749997 ], [ -5.803466796875, 54.663037109374997 ], [ -5.738623046874977, 54.673046875 ], [ -5.58251953125, 54.663427734374999 ], [ -5.527929687499977, 54.61962890625 ], [ -5.490185546874983, 54.554052734374999 ], [ -5.470410156249983, 54.500195312499997 ], [ -5.48388671875, 54.441650390625 ], [ -5.52587890625, 54.460205078125 ], [ -5.568554687499983, 54.512597656250001 ], [ -5.615966796875, 54.53671875 ], [ -5.671093749999983, 54.549755859374997 ], [ -5.646093749999977, 54.477880859374999 ], [ -5.655957031249983, 54.381738281250001 ], [ -5.631884765624989, 54.37265625 ], [ -5.557812499999983, 54.370996093750001 ], [ -5.606787109374977, 54.272558593749999 ], [ -5.708056640624989, 54.245849609375 ], [ -5.826171875, 54.23583984375 ], [ -5.854638671874994, 54.200976562499996 ], [ -5.876074218749977, 54.156054687499996 ], [ -5.937744140625, 54.0890625 ], [ -6.01904296875, 54.05126953125 ], [ -6.11953125, 54.058886718749996 ], [ -6.218017578125, 54.088720703124999 ], [ -6.175732421874983, 54.053515625 ], [ -6.156933593749983, 54.017236328125001 ], [ -6.230664062499983, 54.003613281249997 ], [ -6.3076171875, 54.011035156249996 ], [ -6.345166015624983, 53.987207031250001 ], [ -6.347607421874983, 53.941308593750001 ], [ -6.321582031249989, 53.882177734374999 ], [ -6.270117187499977, 53.840234375 ], [ -6.22900390625, 53.745703125 ], [ -6.194873046874989, 53.640869140625 ], [ -6.141845703125, 53.577539062500001 ], [ -6.130957031249977, 53.498925781250001 ], [ -6.138769531249977, 53.460302734374999 ], [ -6.129101562499983, 53.390869140625 ], [ -6.151660156249989, 53.36640625 ], [ -6.134716796874983, 53.301220703124997 ], [ -6.072265625, 53.166308593749996 ], [ -6.045019531249977, 53.091162109374999 ], [ -6.027392578124989, 52.927099609374999 ], [ -6.071484374999983, 52.865625 ], [ -6.130664062499989, 52.807275390625001 ], [ -6.169335937499994, 52.738134765624999 ], [ -6.19921875, 52.663476562500001 ], [ -6.217236328124983, 52.543115234375001 ], [ -6.345410156249983, 52.402001953125001 ], [ -6.399951171874989, 52.366943359375 ], [ -6.463183593749989, 52.345361328125001 ], [ -6.325, 52.246679687499999 ], [ -6.437939453124983, 52.202685546874996 ], [ -6.561083984374989, 52.188818359374999 ], [ -6.697314453124989, 52.213525390625001 ], [ -6.7822265625, 52.210498046874996 ], [ -6.859716796874977, 52.178564453124999 ], [ -6.890234374999977, 52.159228515624996 ], [ -6.914648437499977, 52.168554687499999 ], [ -6.965771484374983, 52.24951171875 ], [ -7.003271484374977, 52.165917968750001 ], [ -7.081787109375, 52.139306640625001 ], [ -7.216210937499994, 52.144970703124997 ], [ -7.440869140624983, 52.122705078125001 ], [ -7.527294921874983, 52.098876953125 ], [ -7.563183593749983, 52.061621093749999 ], [ -7.58984375, 52.0185546875 ], [ -7.624902343749994, 51.993115234374997 ], [ -7.66455078125, 51.979736328125 ], [ -7.837988281249977, 51.947998046875 ], [ -7.872167968749977, 51.935302734375 ], [ -7.952490234374977, 51.865771484374996 ], [ -8.057812499999983, 51.825585937500001 ], [ -8.14501953125, 51.813525390624996 ], [ -8.222460937499989, 51.85400390625 ], [ -8.254296875, 51.878320312500001 ], [ -8.290234374999983, 51.890673828124996 ], [ -8.4091796875, 51.888769531249999 ], [ -8.371630859374989, 51.876269531249996 ], [ -8.347363281249983, 51.847705078124996 ], [ -8.335595703124994, 51.79296875 ], [ -8.34912109375, 51.739306640624996 ], [ -8.407812499999977, 51.712060546875001 ], [ -8.477832031249989, 51.70703125 ], [ -8.58828125, 51.6513671875 ], [ -8.734472656249977, 51.636181640624997 ], [ -8.813427734374983, 51.584912109374997 ], [ -9.296484374999977, 51.498242187499997 ], [ -9.323876953124994, 51.497216796874994 ], [ -9.390576171874983, 51.519287109375 ], [ -9.462890625, 51.529052734375 ], [ -9.534863281249983, 51.522167968749997 ], [ -9.7373046875, 51.473730468749999 ], [ -9.835351562499994, 51.483349609374997 ], [ -9.710351562499994, 51.603710937499997 ], [ -9.542382812499994, 51.664453125 ], [ -9.52490234375, 51.681103515624997 ], [ -9.579833984375, 51.689257812499996 ], [ -9.899023437499977, 51.647070312499999 ], [ -10.009912109374994, 51.611132812499996 ], [ -10.120751953124994, 51.600683593749999 ], [ -10.069433593749977, 51.655566406249996 ], [ -9.926416015624994, 51.730712890625 ], [ -9.849707031249977, 51.76611328125 ], [ -9.802880859374994, 51.780126953124999 ], [ -9.74951171875, 51.824267578124996 ], [ -9.598828124999983, 51.874414062500001 ], [ -10.084228515625, 51.77099609375 ], [ -10.211718749999989, 51.78359375 ], [ -10.241748046874989, 51.812451171874997 ], [ -10.341064453125, 51.798925781249999 ], [ -10.378710937499989, 51.86875 ], [ -10.231591796874994, 51.974511718750001 ], [ -10.145849609374977, 52.02001953125 ], [ -10.044042968749977, 52.044580078125001 ], [ -9.946044921875, 52.079833984375 ], [ -9.90966796875, 52.122949218750001 ], [ -9.955810546875, 52.136669921874997 ], [ -10.24951171875, 52.125732421875 ], [ -10.390234374999977, 52.134912109375001 ], [ -10.382617187499989, 52.169091796875001 ], [ -10.356689453125, 52.206933593750001 ], [ -10.2109375, 52.271679687499997 ], [ -10.132080078125, 52.282080078124999 ], [ -10.061767578125, 52.275927734374996 ], [ -9.993115234374983, 52.259326171874996 ], [ -9.937304687499989, 52.237646484374999 ], [ -9.772119140624994, 52.250097656249999 ], [ -9.841064453125, 52.291455078124997 ], [ -9.853222656249983, 52.37548828125 ], [ -9.906054687499989, 52.403710937500001 ], [ -9.838476562499977, 52.442675781249996 ], [ -9.761132812499994, 52.466357421874996 ], [ -9.632226562499994, 52.546923828124996 ], [ -9.586328125, 52.559179687499999 ], [ -9.33125, 52.578759765625001 ], [ -9.05615234375, 52.621142578124996 ], [ -8.783447265625, 52.679638671874997 ], [ -8.923291015624983, 52.712304687500001 ], [ -8.990283203124989, 52.755419921874996 ], [ -9.097900390625, 52.668261718749996 ], [ -9.175390624999977, 52.634912109375001 ], [ -9.394238281249983, 52.617089843750001 ], [ -9.463476562499977, 52.626904296874997 ], [ -9.56103515625, 52.653955078125001 ], [ -9.591357421874989, 52.643652343749999 ], [ -9.61953125, 52.622753906249997 ], [ -9.764355468749983, 52.579980468750001 ], [ -9.916601562499977, 52.569726562500001 ], [ -9.739599609374977, 52.648193359375 ], [ -9.514990234374977, 52.781152343750001 ], [ -9.464892578124989, 52.823193359374997 ], [ -9.393652343749977, 52.896240234375 ], [ -9.415722656249983, 52.928759765624996 ], [ -9.461962890624989, 52.947265625 ], [ -9.29921875, 53.097558593750001 ], [ -9.241894531249983, 53.124853515624999 ], [ -9.137597656249994, 53.129248046874999 ], [ -9.061132812499977, 53.153076171875 ], [ -9.027441406249977, 53.153173828124999 ], [ -8.997167968749977, 53.162060546874997 ], [ -8.930126953124983, 53.207080078124996 ], [ -9.033544921874977, 53.235742187500001 ], [ -9.140332031249983, 53.25048828125 ], [ -9.470751953124989, 53.23486328125 ], [ -9.514208984374989, 53.238232421874997 ], [ -9.55517578125, 53.252050781249999 ], [ -9.581738281249983, 53.27197265625 ], [ -9.601757812499983, 53.323046875 ], [ -9.6259765625, 53.33447265625 ], [ -9.700585937499994, 53.33447265625 ], [ -9.774072265624994, 53.31884765625 ], [ -9.825390624999983, 53.320361328124996 ], [ -9.875781249999989, 53.342724609374997 ], [ -9.79541015625, 53.394970703124997 ], [ -9.899023437499977, 53.407275390624996 ], [ -10.00390625, 53.397021484374996 ], [ -10.091259765624983, 53.412841796875 ], [ -10.093994140625, 53.445605468749996 ], [ -10.054394531249983, 53.478320312499996 ], [ -10.10625, 53.509326171874996 ], [ -10.116992187499989, 53.548535156249997 ], [ -10.061718749999983, 53.567822265624997 ], [ -10.001367187499994, 53.561425781250001 ], [ -9.878271484374977, 53.590429687499999 ], [ -9.720654296874983, 53.6044921875 ], [ -9.855859375, 53.633105468749996 ], [ -9.909716796874989, 53.657617187500001 ], [ -9.912304687499983, 53.695117187499996 ], [ -9.901611328125, 53.727197265625001 ], [ -9.745068359374983, 53.781494140625 ], [ -9.578222656249977, 53.805419921875 ], [ -9.590527343749983, 53.841162109374999 ], [ -9.578857421875, 53.879833984374997 ], [ -9.747509765624983, 53.891015625 ], [ -9.9140625, 53.863720703124997 ], [ -9.896240234375, 53.937597656249999 ], [ -9.856347656249994, 54.004296875 ], [ -9.848486328124977, 54.048291015624997 ], [ -9.8564453125, 54.095361328125001 ], [ -9.934472656249994, 54.075244140624996 ], [ -9.943603515625, 54.1416015625 ], [ -9.977099609374989, 54.187109375 ], [ -10.092675781249994, 54.15576171875 ], [ -10.089697265624977, 54.2158203125 ], [ -10.056396484375, 54.2578125 ], [ -9.995947265624977, 54.276025390625001 ], [ -9.9359375, 54.268115234374996 ], [ -9.824560546874977, 54.268896484374999 ], [ -9.717138671874977, 54.300439453125001 ], [ -9.562304687499989, 54.308544921874997 ], [ -9.315527343749977, 54.298632812499996 ], [ -9.145898437499994, 54.209619140625001 ], [ -9.102099609374989, 54.225537109374997 ], [ -9.034277343749977, 54.281787109374996 ], [ -9.00244140625, 54.287988281250001 ], [ -8.746777343749983, 54.263476562499996 ], [ -8.588037109374994, 54.231103515625001 ], [ -8.545556640624994, 54.2412109375 ], [ -8.568457031249977, 54.303613281250001 ], [ -8.623144531249977, 54.346875 ], [ -8.554443359375, 54.403564453125 ], [ -8.470996093749989, 54.441943359374996 ], [ -8.415234374999983, 54.461083984375001 ], [ -8.286523437499994, 54.48486328125 ], [ -8.230371093749994, 54.507275390624997 ], [ -8.192968749999977, 54.580126953124996 ], [ -8.133447265624994, 54.640820312499997 ], [ -8.45654296875, 54.609277343750001 ], [ -8.763916015625, 54.681201171874996 ], [ -8.715185546874977, 54.73203125 ], [ -8.650292968749994, 54.760888671875001 ], [ -8.538281249999983, 54.782958984375 ], [ -8.527685546874977, 54.809472656250001 ], [ -8.470996093749989, 54.83154296875 ], [ -8.377294921874977, 54.889453125 ], [ -8.411718749999977, 54.965087890625 ], [ -8.393261718749983, 55.020410156250001 ], [ -8.325781249999977, 55.056445312499996 ], [ -8.3046875, 55.108203125 ], [ -8.274609374999983, 55.146289062499996 ], [ -8.1376953125, 55.159912109375 ], [ -8.006103515625, 55.1953125 ], [ -7.958593749999977, 55.19189453125 ], [ -7.803173828124983, 55.200048828124999 ], [ -7.750537109374989, 55.185791015625 ], [ -7.762548828124977, 55.248339843749996 ], [ -7.667089843749977, 55.256494140625001 ], [ -7.629785156249994, 55.243994140624999 ], [ -7.613378906249977, 55.199658203124997 ], [ -7.570019531249983, 55.17138671875 ], [ -7.556640625, 55.122216796875001 ], [ -7.585693359375, 55.084228515625 ], [ -7.63427734375, 55.054980468749996 ], [ -7.58984375, 55.025048828125001 ], [ -7.658740234374989, 54.970947265625 ], [ -7.584375, 54.993994140624999 ], [ -7.478417968749994, 55.046972656249999 ], [ -7.483935546874989, 55.090283203124997 ], [ -7.501953125, 55.144726562499997 ], [ -7.531445312499983, 55.19384765625 ], [ -7.517871093749989, 55.247949218750001 ], [ -7.458300781249989, 55.281787109374996 ], [ -7.3017578125, 55.298779296874997 ], [ -7.365966796875, 55.360205078124999 ], [ -7.308789062499983, 55.365820312499999 ], [ -7.246679687499977, 55.35302734375 ], [ -7.155322265624989, 55.30517578125 ], [ -7.060253906249983, 55.267626953124996 ], [ -6.961669921875, 55.237890625 ], [ -7.056396484375, 55.178320312499999 ], [ -7.1728515625, 55.137011718749996 ], [ -7.218652343749994, 55.091992187499997 ], [ -7.178613281249994, 55.056884765625 ], [ -7.100634765624989, 55.048291015624997 ], [ -7.03076171875, 55.080615234374996 ] ] ], [ [ [ -10.062304687499989, 53.959765625 ], [ -10.265820312499983, 53.977734375 ], [ -10.18115234375, 54.016992187500001 ], [ -10.139843749999983, 54.005273437500001 ], [ -9.996337890625, 54.003369140624997 ], [ -9.956152343749977, 53.987353515624996 ], [ -9.948144531249994, 53.913378906249996 ], [ -9.952539062499994, 53.884619140624999 ], [ -10.026513671874994, 53.9203125 ], [ -10.062304687499989, 53.959765625 ] ] ], [ [ [ -3.136767578124989, 58.378320312499994 ], [ -3.212353515624983, 58.321240234374997 ], [ -3.410986328124977, 58.239648437499994 ], [ -3.775, 58.052099609374999 ], [ -3.990039062499989, 57.959033203124996 ], [ -4.019628906249977, 57.914257812499997 ], [ -4.035595703124983, 57.852001953124997 ], [ -3.906835937499977, 57.839648437499996 ], [ -3.857128906249983, 57.818554687499997 ], [ -3.887939453125, 57.786914062499996 ], [ -4.078417968749989, 57.677050781249996 ], [ -4.134521484375, 57.577734375 ], [ -3.988476562499983, 57.58125 ], [ -3.8681640625, 57.600341796875 ], [ -3.628222656249989, 57.662255859375001 ], [ -3.402783203124983, 57.708251953125 ], [ -3.294531249999977, 57.71015625 ], [ -3.083935546874983, 57.673486328125001 ], [ -3.036035156249994, 57.672314453124997 ], [ -2.946679687499994, 57.689257812499996 ], [ -2.856298828124977, 57.692285156250001 ], [ -2.244140625, 57.680859375 ], [ -2.074072265624977, 57.702392578125 ], [ -1.961523437499977, 57.676660156250001 ], [ -1.867382812499983, 57.612353515624996 ], [ -1.777929687499977, 57.49375 ], [ -1.780664062499994, 57.474023437500001 ], [ -1.834716796875, 57.419970703124996 ], [ -1.934472656249994, 57.352197265625001 ], [ -2.020312499999989, 57.258886718749999 ], [ -2.045507812499977, 57.208544921874996 ], [ -2.062353515624977, 57.153466796875001 ], [ -2.089550781249983, 57.1025390625 ], [ -2.26025390625, 56.863330078124996 ], [ -2.426660156249994, 56.730712890625 ], [ -2.5009765625, 56.636572265624999 ], [ -2.592675781249994, 56.561572265624996 ], [ -2.680957031249989, 56.514404296875 ], [ -2.775195312499989, 56.482958984374996 ], [ -3.047412109374989, 56.449365234375001 ], [ -3.123583984374989, 56.42529296875 ], [ -3.214453124999977, 56.383935546875001 ], [ -3.309960937499994, 56.363476562499997 ], [ -3.197998046875, 56.366064453124999 ], [ -3.087011718749977, 56.3890625 ], [ -2.88515625, 56.397509765624996 ], [ -2.652734375, 56.318261718750001 ], [ -2.674267578124983, 56.25341796875 ], [ -2.767578125, 56.2021484375 ], [ -2.979785156249989, 56.194091796875 ], [ -3.17822265625, 56.080126953124996 ], [ -3.267773437499983, 56.045068359375001 ], [ -3.362255859374983, 56.027636718749996 ], [ -3.480419921874983, 56.0328125 ], [ -3.695117187499989, 56.063330078124999 ], [ -3.7890625, 56.09521484375 ], [ -3.704150390624989, 56.043164062499997 ], [ -3.6078125, 56.016015625 ], [ -3.048730468749994, 55.951953125 ], [ -3.015087890624983, 55.95859375 ], [ -2.836865234374983, 56.026269531250001 ], [ -2.599316406249983, 56.027294921874997 ], [ -2.147070312499977, 55.902978515625001 ], [ -2.016845703125, 55.807958984374999 ], [ -1.830273437499983, 55.671728515624999 ], [ -1.728759765625, 55.618554687500001 ], [ -1.655371093749977, 55.570361328124996 ], [ -1.610156249999989, 55.498095703124996 ], [ -1.522558593749977, 55.259521484375 ], [ -1.422656249999989, 55.026416015624996 ], [ -1.291748046875, 54.773876953124997 ], [ -1.232421875, 54.703710937499999 ], [ -1.154394531249977, 54.654492187499997 ], [ -0.759326171874989, 54.54140625 ], [ -0.67138671875, 54.50390625 ], [ -0.518115234374989, 54.395117187499999 ], [ -0.370361328125, 54.279199218750001 ], [ -0.232861328124983, 54.190136718749997 ], [ -0.084375, 54.118066406250001 ], [ -0.156298828124989, 54.080615234374996 ], [ -0.20556640625, 54.021728515625 ], [ -0.16875, 53.941650390625 ], [ -0.108251953124977, 53.865185546874997 ], [ 0.010546875000017, 53.742822265625001 ], [ 0.115332031250006, 53.609277343750001 ], [ 0.076708984375017, 53.629443359374996 ], [ 0.036083984375011, 53.640527343750001 ], [ -0.019433593749994, 53.63720703125 ], [ -0.07373046875, 53.643652343749999 ], [ -0.173828125, 53.685449218750001 ], [ -0.27001953125, 53.736767578124997 ], [ -0.461376953124983, 53.716162109374999 ], [ -0.567675781249989, 53.725390625 ], [ -0.659912109375, 53.724023437500001 ], [ -0.485058593749983, 53.694384765624996 ], [ -0.293701171875, 53.692333984374997 ], [ 0.128320312500023, 53.46826171875 ], [ 0.27099609375, 53.335498046874996 ], [ 0.355761718750017, 53.159960937499996 ], [ 0.298046875000011, 53.081103515624996 ], [ 0.208203125000011, 53.030029296875 ], [ 0.124414062500023, 52.971582031250001 ], [ 0.0458984375, 52.905615234374999 ], [ 0.27978515625, 52.808691406249999 ], [ 0.330175781250006, 52.811621093749999 ], [ 0.381933593750006, 52.8251953125 ], [ 0.431640625, 52.858154296875 ], [ 0.515527343750023, 52.938378906250001 ], [ 0.558789062500011, 52.966943359375001 ], [ 0.704492187500023, 52.977246093749997 ], [ 0.826757812500006, 52.97109375 ], [ 0.948535156250017, 52.953369140625 ], [ 1.055566406250023, 52.958984375 ], [ 1.271289062500017, 52.924560546875 ], [ 1.382128906250017, 52.893505859374997 ], [ 1.65673828125, 52.753710937499996 ], [ 1.716113281250017, 52.67724609375 ], [ 1.743359375000011, 52.578515625 ], [ 1.74658203125, 52.468994140625 ], [ 1.700390625000011, 52.368896484375 ], [ 1.647363281250023, 52.278515625 ], [ 1.614648437500023, 52.161816406249997 ], [ 1.59140625, 52.119775390625001 ], [ 1.558984375000023, 52.086865234374997 ], [ 1.413476562500023, 51.994775390625001 ], [ 1.316796875000023, 51.956933593750001 ], [ 1.275976562500006, 51.973535156250001 ], [ 1.232421875, 51.971240234374996 ], [ 1.227832031250017, 51.949121093750001 ], [ 1.273828125000023, 51.902099609375 ], [ 1.2744140625, 51.845361328125001 ], [ 1.1884765625, 51.803369140625001 ], [ 1.101171875, 51.785449218749996 ], [ 0.955078125, 51.8078125 ], [ 0.752246093750017, 51.729589843749999 ], [ 0.898046875, 51.689404296874997 ], [ 0.927441406250011, 51.646630859375001 ], [ 0.890917968750017, 51.571435546874994 ], [ 0.799218750000023, 51.537890625 ], [ 0.697558593750017, 51.523046875 ], [ 0.593457031250011, 51.519482421874997 ], [ 0.507226562500023, 51.501074218749999 ], [ 0.424511718750011, 51.465625 ], [ 0.5283203125, 51.484472656249999 ], [ 0.600292968750011, 51.46796875 ], [ 0.6455078125, 51.4046875 ], [ 0.6865234375, 51.386572265624999 ], [ 0.889355468750011, 51.359521484374994 ], [ 1.014941406250017, 51.359716796874999 ], [ 1.257128906250017, 51.375097656249999 ], [ 1.373437500000023, 51.374707031249997 ], [ 1.414941406250023, 51.36328125 ], [ 1.415625, 51.310839843749996 ], [ 1.397558593750006, 51.18203125 ], [ 1.365527343750017, 51.15546875 ], [ 1.04443359375, 51.047265625 ], [ 0.978613281250006, 50.9716796875 ], [ 0.960156250000011, 50.925878906249999 ], [ 0.772363281250023, 50.933984375 ], [ 0.684375, 50.885546875 ], [ 0.532324218750006, 50.853417968749994 ], [ 0.414746093750011, 50.819189453124999 ], [ 0.299707031250023, 50.775976562499999 ], [ 0.205078125, 50.763037109374999 ], [ -0.203906249999989, 50.814355468749994 ], [ -0.450781249999977, 50.81015625 ], [ -0.785253906249977, 50.765429687499996 ], [ -0.871386718749989, 50.772802734374999 ], [ -1.000585937499977, 50.815625 ], [ -1.132861328124989, 50.844580078124999 ], [ -1.285058593749994, 50.857324218749994 ], [ -1.416455078124983, 50.896875 ], [ -1.33447265625, 50.82080078125 ], [ -1.516748046874994, 50.747460937499994 ], [ -1.600830078125, 50.732861328124997 ], [ -1.687890625, 50.73515625 ], [ -1.866015624999989, 50.715234375 ], [ -2.031054687499989, 50.725390625 ], [ -2.00625, 50.673242187499994 ], [ -1.962060546874994, 50.627783203124999 ], [ -1.997900390624977, 50.608007812499999 ], [ -2.035839843749983, 50.603076171874996 ], [ -2.350146484374989, 50.637402343749997 ], [ -2.394677734374994, 50.630908203124996 ], [ -2.433447265624977, 50.59921875 ], [ -2.547753906249994, 50.616308593749999 ], [ -2.658837890624994, 50.669726562499996 ], [ -2.776953124999977, 50.70556640625 ], [ -2.90087890625, 50.722412109375 ], [ -2.999414062499994, 50.716601562499996 ], [ -3.404589843749989, 50.632421875 ], [ -3.485449218749977, 50.547949218749999 ], [ -3.52587890625, 50.428173828124997 ], [ -3.584375, 50.321826171874996 ], [ -3.679785156249977, 50.239941406249997 ], [ -3.793359375, 50.229248046875 ], [ -3.900195312499989, 50.2859375 ], [ -4.103417968749994, 50.348535156249994 ], [ -4.172558593749983, 50.390820312499997 ], [ -4.194580078125, 50.393310546875 ], [ -4.21728515625, 50.378173828125 ], [ -4.296972656249977, 50.359082031249997 ], [ -4.379492187499977, 50.358203125 ], [ -4.506689453124977, 50.341357421874996 ], [ -4.727978515624983, 50.290478515624997 ], [ -4.8173828125, 50.255957031249999 ], [ -5.009521484375, 50.160742187499999 ], [ -5.048632812499989, 50.134375 ], [ -5.118505859374977, 50.038330078125 ], [ -5.225244140624994, 50.021386718749994 ], [ -5.322851562499977, 50.082958984374997 ], [ -5.433984375, 50.104443359374997 ], [ -5.551220703124983, 50.083398437499994 ], [ -5.622119140624989, 50.050683593749994 ], [ -5.655175781249994, 50.077246093749999 ], [ -5.65625, 50.131884765624996 ], [ -5.570654296874977, 50.196972656249997 ], [ -5.34228515625, 50.246142578124996 ], [ -5.141796874999983, 50.373730468749997 ], [ -5.04345703125, 50.451513671874999 ], [ -5.004443359374989, 50.495263671874994 ], [ -4.956396484374977, 50.523144531249997 ], [ -4.8935546875, 50.53369140625 ], [ -4.861279296874983, 50.58203125 ], [ -4.582910156249994, 50.7763671875 ], [ -4.559960937499994, 50.820947265624994 ], [ -4.546093749999983, 50.900683593749996 ], [ -4.523095703124994, 50.977441406249994 ], [ -4.296484374999977, 51.027148437499996 ], [ -4.188183593749983, 51.188525390624996 ], [ -4.158398437499983, 51.201318359374994 ], [ -3.842333984374989, 51.230908203124997 ], [ -3.60791015625, 51.228564453124996 ], [ -3.375097656249977, 51.196972656249997 ], [ -3.255761718749994, 51.194140625 ], [ -3.135986328125, 51.205029296874997 ], [ -3.042041015624989, 51.248583984374996 ], [ -2.88125, 51.405664062499994 ], [ -2.790820312499989, 51.474804687499997 ], [ -2.687207031249983, 51.537255859374994 ], [ -2.590283203124983, 51.60859375 ], [ -2.433056640624983, 51.74072265625 ], [ -2.539355468749989, 51.695214843750001 ], [ -2.667675781249983, 51.622998046874997 ], [ -2.742138671874983, 51.581103515624996 ], [ -2.978515625, 51.538867187499996 ], [ -3.080371093749989, 51.495800781249997 ], [ -3.2587890625, 51.398486328124996 ], [ -3.293115234374994, 51.390429687499996 ], [ -3.562353515624977, 51.413818359375 ], [ -3.7626953125, 51.539941406249994 ], [ -3.890771484374994, 51.591650390624999 ], [ -3.943652343749989, 51.597509765624999 ], [ -3.998339843749989, 51.582128906249999 ], [ -4.115283203124989, 51.56640625 ], [ -4.234570312499983, 51.569091796875 ], [ -4.173681640624977, 51.62734375 ], [ -4.091015624999983, 51.659912109375 ], [ -4.276171874999989, 51.682519531250001 ], [ -4.32763671875, 51.700244140624996 ], [ -4.386279296874989, 51.741064453124999 ], [ -4.531494140625, 51.748046875 ], [ -4.600781249999983, 51.737646484374999 ], [ -4.717626953124977, 51.683691406249999 ], [ -4.902294921874983, 51.626269531249996 ], [ -5.124755859375, 51.705859375 ], [ -5.168359375, 51.74072265625 ], [ -5.167236328125, 51.808056640624997 ], [ -5.200585937499994, 51.861376953124996 ], [ -5.262304687499977, 51.880175781249996 ], [ -5.183349609375, 51.949658203124997 ], [ -5.088085937499983, 51.995898437499996 ], [ -4.878515624999977, 52.041845703124999 ], [ -4.561132812499977, 52.15087890625 ], [ -4.383154296874977, 52.197314453124996 ], [ -4.217724609374983, 52.277441406249999 ], [ -4.149365234374983, 52.326269531249999 ], [ -4.099755859374994, 52.393115234374996 ], [ -4.050537109375, 52.475146484374996 ], [ -3.980322265624977, 52.541748046875 ], [ -4.048437499999977, 52.5576171875 ], [ -4.078906249999989, 52.607861328124997 ], [ -4.070703125, 52.658837890625001 ], [ -4.039257812499983, 52.704052734374997 ], [ -4.067431640624989, 52.7607421875 ], [ -4.117529296874977, 52.820019531249997 ], [ -4.11474609375, 52.866162109374997 ], [ -4.101464843749994, 52.915478515624997 ], [ -4.229150390624994, 52.912841796875 ], [ -4.3564453125, 52.897412109374997 ], [ -4.471826171874994, 52.862451171875001 ], [ -4.583691406249983, 52.81494140625 ], [ -4.683056640624983, 52.80615234375 ], [ -4.681445312499989, 52.844140625 ], [ -4.638330078124994, 52.89111328125 ], [ -4.525683593749989, 52.958203125 ], [ -4.405078124999989, 53.013818359375001 ], [ -4.362207031249994, 53.056054687500001 ], [ -4.328417968749989, 53.105126953125001 ], [ -4.2685546875, 53.14453125 ], [ -4.111035156249983, 53.218945312499997 ], [ -3.809277343749983, 53.302685546874997 ], [ -3.764208984374989, 53.3076171875 ], [ -3.645898437499994, 53.297900390624996 ], [ -3.529589843749989, 53.310546875 ], [ -3.427734375, 53.340673828124999 ], [ -3.326171875, 53.34716796875 ], [ -3.097558593749994, 53.260302734374996 ], [ -3.165576171874989, 53.394677734375001 ], [ -3.064746093749989, 53.426855468749999 ], [ -2.918554687499977, 53.305371093749997 ], [ -2.864160156249994, 53.292578125 ], [ -2.74951171875, 53.310205078125001 ], [ -2.79375, 53.330712890625001 ], [ -2.845410156249983, 53.331933593750001 ], [ -2.9130859375, 53.350244140625001 ], [ -2.969970703125, 53.389208984374996 ], [ -3.064599609374994, 53.512841796875001 ], [ -3.059472656249994, 53.586230468749996 ], [ -2.995703124999977, 53.662548828124997 ], [ -2.925097656249989, 53.732763671874999 ], [ -2.984326171874983, 53.746728515625001 ], [ -3.031787109374989, 53.773583984375001 ], [ -3.045361328124983, 53.843847656249999 ], [ -3.026757812499994, 53.905908203125001 ], [ -2.899853515624983, 53.960693359375 ], [ -2.862402343749977, 54.043847656250001 ], [ -2.846484374999989, 54.135302734374996 ], [ -2.867578125, 54.17724609375 ], [ -2.993505859374977, 54.170507812499999 ], [ -3.054736328124989, 54.153417968749999 ], [ -3.109667968749989, 54.126318359374999 ], [ -3.165966796874983, 54.1279296875 ], [ -3.321533203125, 54.229101562499999 ], [ -3.410253906249977, 54.305615234374997 ], [ -3.569384765624989, 54.467578125 ], [ -3.592041015625, 54.564355468750001 ], [ -3.464599609375, 54.773095703125001 ], [ -3.267919921874977, 54.906591796874999 ], [ -3.036230468749977, 54.953076171874997 ], [ -3.0810546875, 54.961962890624996 ], [ -3.43408203125, 54.963769531250001 ], [ -3.550439453124994, 54.947412109375001 ], [ -3.658300781249977, 54.892871093749996 ], [ -3.71923828125, 54.876123046875001 ], [ -3.783251953124989, 54.869921875 ], [ -3.841601562499989, 54.8427734375 ], [ -3.898583984374994, 54.805078125 ], [ -3.957910156249994, 54.780957031249997 ], [ -4.075781249999977, 54.787207031249999 ], [ -4.132958984374994, 54.779248046874997 ], [ -4.174023437499983, 54.801074218749996 ], [ -4.208398437499994, 54.837158203125 ], [ -4.25341796875, 54.846777343749999 ], [ -4.303662109374983, 54.835693359375 ], [ -4.409912109375, 54.787060546874997 ], [ -4.517480468749994, 54.758349609374996 ], [ -4.647558593749977, 54.789013671874997 ], [ -4.818066406249983, 54.846142578124997 ], [ -4.851708984374994, 54.825292968749999 ], [ -4.889501953124977, 54.772265625 ], [ -4.911230468749977, 54.689453125 ], [ -5.032324218749977, 54.761376953125001 ], [ -5.135498046875, 54.857519531249999 ], [ -5.170117187499983, 54.917919921874997 ], [ -5.172705078124977, 54.985888671874996 ], [ -5.11669921875, 55.012255859374996 ], [ -5.055859374999983, 54.988134765624999 ], [ -4.965185546874977, 55.149462890624996 ], [ -4.784814453124994, 55.359423828124996 ], [ -4.721142578124983, 55.420996093749999 ], [ -4.6767578125, 55.501318359374999 ], [ -4.684375, 55.55390625 ], [ -4.724169921874989, 55.598291015625001 ], [ -4.891845703125, 55.699121093750001 ], [ -4.8896484375, 55.781201171874997 ], [ -4.871679687499977, 55.873925781250001 ], [ -4.826074218749994, 55.929541015624999 ], [ -4.806835937499983, 55.940136718749997 ], [ -4.584082031249977, 55.938671875 ], [ -4.670947265624989, 55.967382812499999 ], [ -4.844091796874977, 56.051171875 ], [ -4.841015624999983, 56.080859375 ], [ -4.80029296875, 56.158349609375001 ], [ -4.819140624999989, 56.150488281249999 ], [ -4.85625, 56.114697265624997 ], [ -4.927099609374977, 56.028076171875 ], [ -4.970361328124994, 56.007861328124996 ], [ -5.092822265624989, 55.9873046875 ], [ -5.114990234375, 55.944628906249996 ], [ -5.134667968749994, 55.933496093750001 ], [ -5.195849609374989, 55.928662109374997 ], [ -5.214599609375, 55.888867187499997 ], [ -5.228222656249983, 55.886328125 ], [ -5.24560546875, 55.929248046874996 ], [ -5.247314453125, 56.000390625 ], [ -5.222949218749989, 56.065820312500001 ], [ -5.176416015624994, 56.116992187499996 ], [ -4.996972656249994, 56.233349609374997 ], [ -5.084326171874977, 56.197460937499997 ], [ -5.282324218749977, 56.089941406249999 ], [ -5.383447265624994, 56.019238281249997 ], [ -5.410449218749989, 55.995361328125 ], [ -5.418896484374983, 55.975244140625001 ], [ -5.418310546874977, 55.952050781250001 ], [ -5.372900390624977, 55.827685546874996 ], [ -5.385839843749977, 55.770117187499999 ], [ -5.556445312499989, 55.389599609374997 ], [ -5.588769531249994, 55.351416015624999 ], [ -5.618457031249989, 55.331445312500001 ], [ -5.646533203124989, 55.326855468749997 ], [ -5.730664062499983, 55.334130859375001 ], [ -5.768212890624994, 55.362646484374999 ], [ -5.767871093749989, 55.394970703124997 ], [ -5.752099609374994, 55.443457031249999 ], [ -5.681347656249983, 55.623974609374997 ], [ -5.650634765625, 55.674121093749996 ], [ -5.605029296874989, 55.720751953124996 ], [ -5.504492187499977, 55.802392578125001 ], [ -5.506933593749977, 55.807714843749999 ], [ -5.573876953124994, 55.791699218749997 ], [ -5.602392578124977, 55.796972656249999 ], [ -5.622851562499989, 55.813134765625001 ], [ -5.609570312499983, 56.055273437499999 ], [ -5.555273437499977, 56.134960937499997 ], [ -5.534960937499989, 56.250830078124999 ], [ -5.487890624999977, 56.350048828124997 ], [ -5.433398437499989, 56.422314453124997 ], [ -5.391943359374977, 56.514794921875001 ], [ -5.329443359374977, 56.555908203125 ], [ -5.312695312499983, 56.618798828125001 ], [ -5.242578125, 56.686865234374999 ], [ -5.188378906249994, 56.758056640625 ], [ -5.217578124999989, 56.751025390624996 ], [ -5.564208984375, 56.565722656249996 ], [ -5.652441406249977, 56.531982421875 ], [ -5.772802734374977, 56.541015625 ], [ -5.864843749999977, 56.561865234374999 ], [ -5.936767578125, 56.605712890625 ], [ -5.968896484374994, 56.689892578124997 ], [ -6.057714843749977, 56.692138671875 ], [ -6.133691406249994, 56.706689453125001 ], [ -6.132763671874983, 56.718017578125 ], [ -6.034716796874989, 56.763916015625 ], [ -5.877636718749983, 56.779638671874999 ], [ -5.730615234374994, 56.853076171874996 ], [ -5.861425781249977, 56.902685546874999 ], [ -5.850390624999989, 56.918408203124997 ], [ -5.736279296874983, 56.960644531249997 ], [ -5.59130859375, 57.10234375 ], [ -5.561914062499994, 57.232714843749996 ], [ -5.63125, 57.2939453125 ], [ -5.656347656249977, 57.334082031249999 ], [ -5.794921875, 57.378808593750001 ], [ -5.818066406249983, 57.436083984374996 ], [ -5.801953124999983, 57.468017578125 ], [ -5.756738281249994, 57.49921875 ], [ -5.688623046874994, 57.523535156249999 ], [ -5.581787109375, 57.546777343750001 ], [ -5.678759765624989, 57.571679687500001 ], [ -5.714941406249977, 57.60107421875 ], [ -5.742382812499983, 57.643652343749999 ], [ -5.744921874999989, 57.668310546874999 ], [ -5.694726562499994, 57.778222656250001 ], [ -5.665478515624983, 57.823535156249996 ], [ -5.608349609374983, 57.88134765625 ], [ -5.349023437499994, 57.878076171875001 ], [ -5.319189453124977, 57.903613281249996 ], [ -5.289794921875, 57.904589843749996 ], [ -5.1572265625, 57.88134765625 ], [ -5.176904296874994, 57.906396484375001 ], [ -5.39375, 58.043603515624994 ], [ -5.413183593749977, 58.069726562499994 ], [ -5.351367187499989, 58.143701171874994 ], [ -5.346875, 58.176660156249994 ], [ -5.35595703125, 58.2119140625 ], [ -5.33828125, 58.238720703124997 ], [ -5.26953125, 58.251416015624997 ], [ -5.059960937499994, 58.250146484374994 ], [ -5.00830078125, 58.262646484374997 ], [ -5.031835937499977, 58.298291015624997 ], [ -5.080615234374989, 58.345166015624997 ], [ -5.090136718749989, 58.384521484375 ], [ -5.078710937499977, 58.419287109374999 ], [ -5.076025390624977, 58.4892578125 ], [ -5.066503906249977, 58.520214843749997 ], [ -5.016748046874994, 58.566552734374994 ], [ -4.975634765624989, 58.580322265625 ], [ -4.924658203124977, 58.58837890625 ], [ -4.809619140624989, 58.572900390624994 ], [ -4.765771484374994, 58.55419921875 ], [ -4.715429687499977, 58.510009765625 ], [ -4.67822265625, 58.513574218749994 ], [ -4.534960937499989, 58.561572265625003 ], [ -4.491894531249983, 58.568457031249999 ], [ -4.433251953124994, 58.512841796874994 ], [ -4.188623046874994, 58.557226562499999 ], [ -3.859521484374994, 58.577099609374997 ], [ -3.661816406249983, 58.606298828124999 ], [ -3.453564453124983, 58.616894531249997 ], [ -3.259130859374977, 58.65 ], [ -3.053076171874977, 58.634814453125003 ], [ -3.046191406249989, 58.615527343750003 ], [ -3.056982421874977, 58.588769531249994 ], [ -3.109667968749989, 58.515478515624999 ], [ -3.101123046874989, 58.433691406249999 ], [ -3.112890624999977, 58.408886718749997 ], [ -3.136767578124989, 58.378320312499994 ] ] ], [ [ [ -5.277050781249983, 55.456738281249997 ], [ -5.331494140624983, 55.481054687499999 ], [ -5.392675781249977, 55.618359375 ], [ -5.370800781249983, 55.666943359374997 ], [ -5.345703125, 55.690722656249996 ], [ -5.318115234375, 55.709179687499997 ], [ -5.251611328124994, 55.716943359375001 ], [ -5.185449218749994, 55.690966796874996 ], [ -5.160400390625, 55.666796875 ], [ -5.10498046875, 55.573974609375 ], [ -5.0947265625, 55.494335937499997 ], [ -5.105419921874983, 55.448828125 ], [ -5.231494140624989, 55.448095703124999 ], [ -5.277050781249983, 55.456738281249997 ] ] ], [ [ [ -6.055322265624994, 55.6953125 ], [ -6.08837890625, 55.657519531249996 ], [ -6.253173828125, 55.607226562499996 ], [ -6.305078125, 55.60693359375 ], [ -6.307226562499977, 55.619140625 ], [ -6.27001953125, 55.6703125 ], [ -6.302050781249989, 55.728369140624999 ], [ -6.286425781249989, 55.772509765624996 ], [ -6.3017578125, 55.780615234374999 ], [ -6.333886718749994, 55.774365234374997 ], [ -6.451953124999989, 55.704248046875001 ], [ -6.491357421874994, 55.697314453124996 ], [ -6.495654296874989, 55.711572265625001 ], [ -6.466455078124994, 55.768994140624997 ], [ -6.462841796874983, 55.808251953125001 ], [ -6.445263671874983, 55.832373046874999 ], [ -6.413183593749977, 55.854638671875001 ], [ -6.374951171874983, 55.871337890625 ], [ -6.344140625, 55.873730468749997 ], [ -6.311279296875, 55.856494140624996 ], [ -6.215673828124977, 55.904589843749996 ], [ -6.12890625, 55.930566406250001 ], [ -6.092822265624989, 55.802148437500001 ], [ -6.0576171875, 55.722509765624999 ], [ -6.055322265624994, 55.6953125 ] ] ], [ [ [ -6.060351562499989, 55.822900390625001 ], [ -6.070703125, 55.84765625 ], [ -6.071972656249983, 55.893115234374996 ], [ -6.041308593749989, 55.925634765624999 ], [ -5.911767578124994, 55.974755859375001 ], [ -5.970312499999977, 55.9921875 ], [ -5.97265625, 56.004443359374996 ], [ -5.939062499999977, 56.045263671874999 ], [ -5.799609374999989, 56.108789062500001 ], [ -5.762255859374989, 56.1203125 ], [ -5.725146484374989, 56.118554687500001 ], [ -5.797216796874977, 56.005615234375 ], [ -5.970068359374977, 55.814550781249999 ], [ -5.990917968749983, 55.803808593749999 ], [ -6.041552734374989, 55.806787109375001 ], [ -6.060351562499989, 55.822900390625001 ] ] ] ] } }
]
}
