{
"type": "FeatureCollection",
"name": "ireland_land_boundary",
"crs": { "type": "name", "properties": { "name": "urn:ogc:def:crs:OGC:1.3:CRS84" } },
"features": [
{ "type": "Feature", "properties": { "name": "Ireland" }, "geometry": { "type": "Polygon", "coordinates": [ [ [ -7.178613281249994, 55.056884765625 ], [ -7.100634765624989, 55.048291015624997 ], [ -7.03076171875, 55.080615234374996 ], [ -6.947167968749994, 55.182519531250001 ], [ -6.888964843749989, 55.188916015624997 ], [ -6.824853515624994, 55.1806640625 ], [ -6.698828124999977, 55.193457031249999 ], [ -6.475048828124983, 55.241015625 ], [ -6.375292968749989, 55.241796875 ], [ -6.234228515624977, 55.216845703124996 ], [ -6.129150390625, 55.217382812499999 ], [ -6.035791015624994, 55.14453125 ], [ -5.985742187499994, 55.0296875 ], [ -5.869189453124989, 54.916210937499997 ], [ -5.716845703124989, 54.817480468749999 ], [ -5.710742187499989, 54.757080078125 ], [ -5.765185546874989, 54.724658203124996 ], [ -5.879101562499983, 54.684375 ], [ -5.878613281249983, 54.641308593749997 ], [ -5.803466796875, 54.663037109374997 ], [ -5.738623046874977, 54.673046875 ], [ -5.58251953125, 54.663427734374999 ], [ -5.527929687499977, 54.61962890625 ], [ -5.490185546874983, 54.554052734374999 ], [ -5.470410156249983, 54.500195312499997 ], [ -5.48388671875, 54.441650390625 ], [ -5.52587890625, 54.460205078125 ], [ -5.568554687499983, 54.512597656250001 ], [ -5.615966796875, 54.53671875 ], [ -5.671093749999983, 54.549755859374997 ], [ -5.646093749999977, 54.477880859374999 ], [ -5.655957031249983, 54.381738281250001 ], [ -5.631884765624989, 54.37265625 ], [ -5.557812499999983, 54.370996093750001 ], [ -5.606787109374977, 54.272558593749999 ], [ -5.708056640624989, 54.245849609375 ], [ -5.826171875, 54.23583984375 ], [ -5.854638671874994, 54.200976562499996 ], [ -5.876074218749977, 54.156054687499996 ], [ -5.937744140625, 54.0890625 ], [ -6.01904296875, 54.05126953125 ], [ -6.11953125, 54.058886718749996 ], [ -6.218017578125, 54.088720703124999 ], [ -6.175732421874983, 54.053515625 ], [ -6.156933593749983, 54.017236328125001 ], [ -6.230664062499983, 54.003613281249997 ], [ -6.3076171875, 54.011035156249996 ], [ -6.345166015624983, 53.987207031250001 ], [ -6.347607421874983, 53.941308593750001 ], [ -6.321582031249989, 53.882177734374999 ], [ -6.270117187499977, 53.840234375 ], [ -6.22900390625, 53.745703125 ], [ -6.194873046874989, 53.640869140625 ], [ -6.141845703125, 53.577539062500001 ], [ -6.130957031249977, 53.498925781250001 ], [ -6.138769531249977, 53.460302734374999 ], [ -6.129101562499983, 53.390869140625 ], [ -6.151660156249989, 53.36640625 ], [ -6.134716796874983, 53.301220703124997 ], [ -6.072265625, 53.166308593749996 ], [ -6.045019531249977, 53.091162109374999 ], [ -6.027392578124989, 52.927099609374999 ], [ -6.071484374999983, 52.865625 ], [ -6.130664062499989, 52.807275390625001 ], [ -6.169335937499994, 52.738134765624999 ], [ -6.19921875, 52.663476562500001 ], [ -6.217236328124983, 52.543115234375001 ], [ -6.345410156249983, 52.402001953125001 ], [ -6.399951171874989, 52.366943359375 ], [ -6.463183593749989, 52.345361328125001 ], [ -6.325, 52.246679687499999 ], [ -6.437939453124983, 52.202685546874996 ], [ -6.561083984374989, 52.188818359374999 ], [ -6.697314453124989, 52.213525390625001 ], [ -6.7822265625, 52.210498046874996 ], [ -6.859716796874977, 52.178564453124999 ], [ -6.890234374999977, 52.159228515624996 ], [ -6.914648437499977, 52.168554687499999 ], [ -6.965771484374983, 52.24951171875 ], [ -7.003271484374977, 52.165917968750001 ], [ -7.081787109375, 52.139306640625001 ], [ -7.216210937499994, 52.144970703124997 ], [ -7.440869140624983, 52.122705078125001 ], [ -7.527294921874983, 52.098876953125 ], [ -7.563183593749983, 52.061621093749999 ], [ -7.58984375, 52.0185546875 ], [ -7.624902343749994, 51.993115234374997 ], [ -7.66455078125, 51.979736328125 ], [ -7.837988281249977, 51.947998046875 ], [ -7.872167968749977, 51.935302734375 ], [ -7.952490234374977, 51.865771484374996 ], [ -8.057812499999983, 51.825585937500001 ], [ -8.14501953125, 51.813525390624996 ], [ -8.222460937499989, 51.85400390625 ], [ -8.254296875, 51.878320312500001 ], [ -8.290234374999983, 51.890673828124996 ], [ -8.4091796875, 51.888769531249999 ], [ -8.371630859374989, 51.876269531249996 ], [ -8.347363281249983, 51.847705078124996 ], [ -8.335595703124994, 51.79296875 ], [ -8.34912109375, 51.739306640624996 ], [ -8.407812499999977, 51.712060546875001 ], [ -8.477832031249989, 51.70703125 ], [ -8.58828125, 51.6513671875 ], [ -8.734472656249977, 51.636181640624997 ], [ -8.813427734374983, 51.584912109374997 ], [ -9.296484374999977, 51.498242187499997 ], [ -9.323876953124994, 51.497216796874994 ], [ -9.390576171874983, 51.519287109375 ], [ -9.462890625, 51.529052734375 ], [ -9.534863281249983, 51.522167968749997 ], [ -9.7373046875, 51.473730468749999 ], [ -9.835351562499994, 51.483349609374997 ], [ -9.710351562499994, 51.603710937499997 ], [ -9.542382812499994, 51.664453125 ], [ -9.52490234375, 51.681103515624997 ], [ -9.579833984375, 51.689257812499996 ], [ -9.899023437499977, 51.647070312499999 ], [ -10.009912109374994, 51.611132812499996 ], [ -10.120751953124994, 51.600683593749999 ], [ -10.069433593749977, 51.655566406249996 ], [ -9.926416015624994, 51.730712890625 ], [ -9.849707031249977, 51.76611328125 ], [ -9.802880859374994, 51.780126953124999 ], [ -9.74951171875, 51.824267578124996 ], [ -9.598828124999983, 51.874414062500001 ], [ -10.084228515625, 51.77099609375 ], [ -10.211718749999989, 51.78359375 ], [ -10.241748046874989, 51.812451171874997 ], [ -10.341064453125, 51.798925781249999 ], [ -10.378710937499989, 51.86875 ], [ -10.231591796874994, 51.974511718750001 ], [ -10.145849609374977, 52.02001953125 ], [ -10.044042968749977, 52.044580078125001 ], [ -9.946044921875, 52.079833984375 ], [ -9.90966796875, 52.122949218750001 ], [ -9.955810546875, 52.136669921874997 ], [ -10.24951171875, 52.125732421875 ], [ -10.390234374999977, 52.134912109375001 ], [ -10.382617187499989, 52.169091796875001 ], [ -10.356689453125, 52.206933593750001 ], [ -10.2109375, 52.271679687499997 ], [ -10.132080078125, 52.282080078124999 ], [ -10.061767578125, 52.275927734374996 ], [ -9.993115234374983, 52.259326171874996 ], [ -9.937304687499989, 52.237646484374999 ], [ -9.772119140624994, 52.250097656249999 ], [ -9.841064453125, 52.291455078124997 ], [ -9.853222656249983, 52.37548828125 ], [ -9.906054687499989, 52.403710937500001 ], [ -9.838476562499977, 52.442675781249996 ], [ -9.761132812499994, 52.466357421874996 ], [ -9.632226562499994, 52.546923828124996 ], [ -9.586328125, 52.559179687499999 ], [ -9.33125, 52.578759765625001 ], [ -9.05615234375, 52.621142578124996 ], [ -8.783447265625, 52.679638671874997 ], [ -8.923291015624983, 52.712304687500001 ], [ -8.990283203124989, 52.755419921874996 ], [ -9.097900390625, 52.668261718749996 ], [ -9.175390624999977, 52.634912109375001 ], [ -9.394238281249983, 52.617089843750001 ], [ -9.463476562499977, 52.626904296874997 ], [ -9.56103515625, 52.653955078125001 ], [ -9.591357421874989, 52.643652343749999 ], [ -9.61953125, 52.622753906249997 ], [ -9.764355468749983, 52.579980468750001 ], [ -9.916601562499977, 52.569726562500001 ], [ -9.739599609374977, 52.648193359375 ], [ -9.514990234374977, 52.781152343750001 ], [ -9.464892578124989, 52.823193359374997 ], [ -9.393652343749977, 52.896240234375 ], [ -9.415722656249983, 52.928759765624996 ], [ -9.461962890624989, 52.947265625 ], [ -9.29921875, 53.097558593750001 ], [ -9.241894531249983, 53.124853515624999 ], [ -9.137597656249994, 53.129248046874999 ], [ -9.061132812499977, 53.153076171875 ], [ -9.027441406249977, 53.153173828124999 ], [ -8.997167968749977, 53.162060546874997 ], [ -8.930126953124983, 53.207080078124996 ], [ -9.033544921874977, 53.235742187500001 ], [ -9.140332031249983, 53.25048828125 ], [ -9.470751953124989, 53.23486328125 ], [ -9.514208984374989, 53.238232421874997 ], [ -9.55517578125, 53.252050781249999 ], [ -9.581738281249983, 53.27197265625 ], [ -9.601757812499983, 53.323046875 ], [ -9.6259765625, 53.33447265625 ], [ -9.700585937499994, 53.33447265625 ], [ -9.774072265624994, 53.31884765625 ], [ -9.825390624999983, 53.320361328124996 ], [ -9.875781249999989, 53.342724609374997 ], [ -9.79541015625, 53.394970703124997 ], [ -9.899023437499977, 53.407275390624996 ], [ -10.00390625, 53.397021484374996 ], [ -10.091259765624983, 53.412841796875 ], [ -10.093994140625, 53.445605468749996 ], [ -10.054394531249983, 53.478320312499996 ], [ -10.10625, 53.509326171874996 ], [ -10.116992187499989, 53.548535156249997 ], [ -10.061718749999983, 53.567822265624997 ], [ -10.001367187499994, 53.561425781250001 ], [ -9.878271484374977, 53.590429687499999 ], [ -9.720654296874983, 53.6044921875 ], [ -9.855859375, 53.633105468749996 ], [ -9.909716796874989, 53.657617187500001 ], [ -9.912304687499983, 53.695117187499996 ], [ -9.901611328125, 53.727197265625001 ], [ -9.745068359374983, 53.781494140625 ], [ -9.578222656249977, 53.805419921875 ], [ -9.590527343749983, 53.841162109374999 ], [ -9.578857421875, 53.879833984374997 ], [ -9.747509765624983, 53.891015625 ], [ -9.9140625, 53.863720703124997 ], [ -9.896240234375, 53.937597656249999 ], [ -9.856347656249994, 54.004296875 ], [ -9.848486328124977, 54.048291015624997 ], [ -9.8564453125, 54.095361328125001 ], [ -9.934472656249994, 54.075244140624996 ], [ -9.943603515625, 54.1416015625 ], [ -9.977099609374989, 54.187109375 ], [ -10.092675781249994, 54.15576171875 ], [ -10.089697265624977, 54.2158203125 ], [ -10.056396484375, 54.2578125 ], [ -9.995947265624977, 54.276025390625001 ], [ -9.9359375, 54.268115234374996 ], [ -9.824560546874977, 54.268896484374999 ], [ -9.717138671874977, 54.300439453125001 ], [ -9.562304687499989, 54.308544921874997 ], [ -9.315527343749977, 54.298632812499996 ], [ -9.145898437499994, 54.209619140625001 ], [ -9.102099609374989, 54.225537109374997 ], [ -9.034277343749977, 54.281787109374996 ], [ -9.00244140625, 54.287988281250001 ], [ -8.746777343749983, 54.263476562499996 ], [ -8.588037109374994, 54.231103515625001 ], [ -8.545556640624994, 54.2412109375 ], [ -8.568457031249977, 54.303613281250001 ], [ -8.623144531249977, 54.346875 ], [ -8.554443359375, 54.403564453125 ], [ -8.470996093749989, 54.441943359374996 ], [ -8.415234374999983, 54.461083984375001 ], [ -8.286523437499994, 54.48486328125 ], [ -8.230371093749994, 54.507275390624997 ], [ -8.192968749999977, 54.580126953124996 ], [ -8.133447265624994, 54.640820312499997 ], [ -8.45654296875, 54.609277343750001 ], [ -8.763916015625, 54.681201171874996 ], [ -8.715185546874977, 54.73203125 ], [ -8.650292968749994, 54.760888671875001 ], [ -8.538281249999983, 54.782958984375 ], [ -8.527685546874977, 54.809472656250001 ], [ -8.470996093749989, 54.83154296875 ], [ -8.377294921874977, 54.889453125 ], [ -8.411718749999977, 54.965087890625 ], [ -8.393261718749983, 55.020410156250001 ], [ -8.325781249999977, 55.056445312499996 ], [ -8.3046875, 55.108203125 ], [ -8.274609374999983, 55.146289062499996 ], [ -8.1376953125, 55.159912109375 ], [ -8.006103515625, 55.1953125 ], [ -7.958593749999977, 55.19189453125 ], [ -7.803173828124983, 55.200048828124999 ], [ -7.750537109374989, 55.185791015625 ], [ -7.762548828124977, 55.248339843749996 ], [ -7.667089843749977, 55.256494140625001 ], [ -7.629785156249994, 55.243994140624999 ], [ -7.613378906249977, 55.199658203124997 ], [ -7.570019531249983, 55.17138671875 ], [ -7.556640625, 55.122216796875001 ], [ -7.585693359375, 55.084228515625 ], [ -7.63427734375, 55.054980468749996 ], [ -7.58984375, 55.025048828125001 ], [ -7.658740234374989, 54.970947265625 ], [ -7.584375, 54.993994140624999 ], [ -7.478417968749994, 55.046972656249999 ], [ -7.483935546874989, 55.090283203124997 ], [ -7.501953125, 55.144726562499997 ], [ -7.531445312499983, 55.19384765625 ], [ -7.517871093749989, 55.247949218750001 ], [ -7.458300781249989, 55.281787109374996 ], [ -7.3017578125, 55.298779296874997 ], [ -7.365966796875, 55.360205078124999 ], [ -7.308789062499983, 55.365820312499999 ], [ -7.246679687499977, 55.35302734375 ], [ -7.155322265624989, 55.30517578125 ], [ -7.060253906249983, 55.267626953124996 ], [ -6.961669921875, 55.237890625 ], [ -7.056396484375, 55.178320312499999 ], [ -7.1728515625, 55.137011718749996 ], [ -7.218652343749994, 55.091992187499997 ], [ -7.178613281249994, 55.056884765625 ] ] ] } }
]
}
